NORAD_CAT_ID,OBJECT_NAME,OBJECT_TYPE,EPOCH,MEAN_MOTION,ECCENTRICITY,INCLINATION,RA_OF_ASC_NODE,ARG_OF_PERICENTER,MEAN_ANOMALY,BSTAR,MEAN_MOTION_DOT,MEAN_MOTION_DDOT,TLE_LINE0,TLE_LINE1,TLE_LINE2,SEMIMAJOR_AXIS,PERIOD,APOGEE,PERIGEE,DECAYED
52672.0,STARLINK-4073,PAYLOAD,2022-12-26 01:17:01,15.08830214,0.0003091,53.2175,4.8333,25.9364,334.1782,-2.5242e-05,-6.900000000000003e-06,0.0,0 STARLINK-4073,1 52672U 22053S   22360.05348426 -.00000690  00000-0 -25242-4 0  9995,2 52672  53.2175   4.8333 0003091  25.9364 334.1782 15.08830214 34030,6917.91,95.438,541.914,537.637,0.0
52672.0,STARLINK-4073,PAYLOAD,2022-12-26 10:49:19,15.08841645,0.000312,53.2176,3.0493,27.7765,332.3393,2.0809e-06,-2.56e-06,0.0,0 STARLINK-4073,1 52672U 22053S   22360.45091768 -.00000256  00000-0  20809-5 0  9995,2 52672  53.2176   3.0493 0003120  27.7765 332.3393 15.08841645 34091,6917.875,95.437,541.899,537.582,0.0
52672.0,STARLINK-4073,PAYLOAD,2022-12-27 12:15:28,15.08842581,0.0003125,53.2182,358.2914,30.0428,330.0743,0.00023711,3.487e-05,0.0,0 STARLINK-4073,1 52672U 22053S   22361.51074974  .00003487  00000-0  23711-3 0  9994,2 52672  53.2182 358.2914 0003125  30.0428 330.0743 15.08842581 34688,6917.871999999999,95.437,541.899,537.576,0.0
52672.0,STARLINK-4073,PAYLOAD,2022-12-27 17:01:37,15.08853728,0.0003161,53.2183,357.3992,28.7317,331.3849,0.00020125,2.917e-05,0.0,0 STARLINK-4073,1 52672U 22053S   22361.70946285  .00002917  00000-0  20125-3 0  9991,2 52672  53.2183 357.3992 0003161  28.7317 331.3849 15.08853728 34288,6917.8380000000025,95.437,541.89,537.5169999999998,0.0
52672.0,STARLINK-4073,PAYLOAD,2022-12-28 23:13:58,15.08838499,0.000316,53.2178,351.7502,29.3885,330.7285,-3.6888e-06,-3.47e-06,0.0,0 STARLINK-4073,1 52672U 22053S   22362.96803424 -.00000347  00000-0 -36888-5 0  9999,2 52672  53.2178 351.7502 0003160  29.3885 330.7285 15.08838499 34479,6917.885,95.438,541.936,537.564,0.0
52672.0,STARLINK-4073,PAYLOAD,2022-12-29 05:35:31,15.08819226,0.0003118,53.2182,350.5602,30.1581,329.959,9.6068e-05,1.24e-05,0.0,0 STARLINK-4073,1 52672U 22053S   22363.23300421  .00001240  00000-0  96068-4 0  9995,2 52672  53.2182 350.5602 0003118  30.1581 329.9590 15.08819226 34519,6917.944,95.439,541.966,537.6519999999998,0.0
52672.0,STARLINK-4073,PAYLOAD,2022-12-30 10:12:26,15.08871818,0.0003103,53.2181,345.2065,26.2039,333.9109,-0.00039716,-6.61e-05,0.0,0 STARLINK-4073,1 52672U 22053S   22364.42530964 -.00006610  00000-0 -39716-3 0  9998,2 52672  53.2181 345.2065 0003103  26.2039 333.9109 15.08871818 34695,6917.783,95.436,541.795,537.502,0.0
52672.0,STARLINK-4073,PAYLOAD,2022-12-30 16:33:59,15.08845129,0.0002941,53.218,344.0175,28.3812,331.7340000000001,0.00017311,2.468e-05,0.0,0 STARLINK-4073,1 52672U 22053S   22364.69027113  .00002468  00000-0  17311-3 0  9996,2 52672  53.2180 344.0175 0002941  28.3812 331.7340 15.08845129 34738,6917.865,95.437,541.764,537.695,0.0
52672.0,STARLINK-4073,PAYLOAD,2022-12-31 05:17:03,15.08860383,0.0002878999999999,53.2183,341.6374,28.8484,331.2667,0.00038842,5.902e-05,0.0,0 STARLINK-4073,1 52672U 22053S   22365.22017502  .00005902  00000-0  38842-3 0  9995,2 52672  53.2183 341.6374 0002879  28.8484 331.2667 15.08860383 34810,6917.818,95.436,541.675,537.691,0.0
52672.0,STARLINK-4073,PAYLOAD,2022-12-31 10:03:12,15.08854618,0.0002961,53.2183,340.747,27.3844,332.7304,0.00031551,4.739e-05,0.0,0 STARLINK-4073,1 52672U 22053S   22365.41889899  .00004739  00000-0  31551-3 0  9999,2 52672  53.2183 340.7470 0002961  27.3844 332.7304 15.08854618 35272,6917.8359999999975,95.437,541.749,537.6519999999998,0.0
52672.0,STARLINK-4073,PAYLOAD,2023-01-01 05:07:53,15.08824542,0.0002931,53.219,337.1776,25.4419,334.6717,-9.0968e-05,-1.736e-05,0.0,0 STARLINK-4073,1 52672U 22053S   23001.21380959 -.00001736  00000-0 -90968-4 0  9992,2 52672  53.2190 337.1776 0002931  25.4419 334.6717 15.08824542 34960,6917.928000000001,95.439,541.82,537.765,0.0
52672.0,STARLINK-4073,PAYLOAD,2023-01-01 09:54:01,15.08829413,0.0003005,53.2183,336.2856,26.985,333.1298,-0.000215,-3.708e-05,0.0,0 STARLINK-4073,1 52672U 22053S   23001.41251943 -.00003708  00000-0 -21500-3 0  9990,2 52672  53.2183 336.2856 0003005  26.9850 333.1298 15.08829413 34992,6917.913000000001,95.438,541.857,537.6990000000002,0.0
52672.0,STARLINK-4073,PAYLOAD,2023-01-01 22:37:07,15.08824377,0.0002991,53.2178,333.9075,27.6403,332.4748,-0.00029714,-5.013e-05,0.0,0 STARLINK-4073,1 52672U 22053S   23001.94244472 -.00005013  00000-0 -29714-3 0  9993,2 52672  53.2178 333.9075 0002991  27.6403 332.4748 15.08824377 35502,6917.928000000001,95.439,541.862,537.724,0.0
52672.0,STARLINK-4073,PAYLOAD,2023-01-02 14:30:58,15.08833637,0.0002976,53.218,330.9349,29.0806,331.0352,0.00011392,1.525e-05,0.0,0 STARLINK-4073,1 52672U 22053S   23002.60484527  .00001525  00000-0  11392-3 0  9999,2 52672  53.2180 330.9349 0002976  29.0806 331.0352 15.08833637 35608,6917.9,95.438,541.8240000000002,537.706,0.0
52672.0,STARLINK-4073,PAYLOAD,2023-01-03 09:35:36,15.08849329,0.0002921,53.2174,327.3658,27.7856,332.3292,0.00052913,8.145e-05,0.0,0 STARLINK-4073,1 52672U 22053S   23003.39972758  .00008145  00000-0  52913-3 0  9993,2 52672  53.2174 327.3658 0002921  27.7856 332.3292 15.08849329 35729,6917.852,95.437,541.738,537.696,0.0
52672.0,STARLINK-4073,PAYLOAD,2023-01-04 03:04:50,15.08854746,0.0002826,53.2171,324.0948,26.85,333.2638,0.00072353,0.0001125,0.0,0 STARLINK-4073,1 52672U 22053S   23004.12836532  .00011250  00000-0  72353-3 0  9995,2 52672  53.2171 324.0948 0002826  26.8500 333.2638 15.08854746 35400,6917.835,95.437,541.655,537.745,0.0
52672.0,STARLINK-4073,PAYLOAD,2023-01-04 14:12:32,15.08855661,0.0002853,53.2173,322.0127,25.8889,334.2245,0.00068332,0.00010609,0.0,0 STARLINK-4073,1 52672U 22053S   23004.59204305  .00010609  00000-0  68332-3 0  9992,2 52672  53.2173 322.0127 0002853  25.8889 334.2245 15.08855661 35905,6917.833000000001,95.437,541.6709999999998,537.724,0.0
52672.0,STARLINK-4073,PAYLOAD,2023-01-04 23:44:50,15.08875172,0.0002878,53.2171,320.2284,26.7774,333.3366,0.0011173,0.00017556,0.0,0 STARLINK-4073,1 52672U 22053S   23004.98947505  .00017556  00000-0  11173-2 0  9999,2 52672  53.2171 320.2284 0002878  26.7774 333.3366 15.08875172 35539,6917.773,95.435,541.629,537.6469999999998,0.0
52672.0,STARLINK-4073,PAYLOAD,2023-01-05 06:06:22,15.08880257,0.0002818,53.2169,319.0387,28.2517,331.8628,0.0008966,0.00014026,0.0,0 STARLINK-4073,1 52672U 22053S   23005.25442808  .00014026  00000-0  89660-3 0  9992,2 52672  53.2169 319.0387 0002818  28.2517 331.8628 15.08880257 36009,6917.757,95.435,541.572,537.673,0.0
52672.0,STARLINK-4073,PAYLOAD,2023-01-05 14:03:17,15.08895728,0.000279,53.2172,317.5526,25.0201,335.0926,0.0011642999999999,0.00018319,0.0,0 STARLINK-4073,1 52672U 22053S   23005.58561645  .00018319  00000-0  11643-2 0  9993,2 52672  53.2172 317.5526 0002790  25.0201 335.0926 15.08895728 36056,6917.71,95.434,541.505,537.645,0.0
52672.0,STARLINK-4073,PAYLOAD,2023-01-06 05:57:08,15.08847603,0.0002385,53.2169,314.5783,22.6988,337.4109,-0.00041434,-6.878e-05,0.0,0 STARLINK-4073,1 52672U 22053S   23006.24801517 -.00006878  00000-0 -41434-3 0  9993,2 52672  53.2169 314.5783 0002385  22.6988 337.4109 15.08847603 35720,6917.857,95.437,541.372,538.072,0.0
52672.0,STARLINK-4073,PAYLOAD,2023-01-07 05:47:55,15.08848616,0.0002776,53.2185,310.118,26.8674,333.2461,0.00083105,0.00012966,0.0,0 STARLINK-4073,1 52672U 22053S   23007.24162033  .00012966  00000-0  83105-3 0  9991,2 52672  53.2185 310.1180 0002776  26.8674 333.2461 15.08848616 36308,6917.854,95.437,541.639,537.799,0.0
52672.0,STARLINK-4073,PAYLOAD,2023-01-07 20:06:25,15.088173,0.0003162,53.2167,307.4406,39.0596,321.0624,0.00068878,0.00010684,0.0,0 STARLINK-4073,1 52672U 22053S   23007.83779513  .00010684  00000-0  68878-3 0  9998,2 52672  53.2167 307.4406 0003162  39.0596 321.0624 15.08817300 35960,6917.95,95.439,542.002,537.627,0.0
52672.0,STARLINK-4073,PAYLOAD,2023-01-08 05:38:44,15.08818536,0.0003162,53.2181,305.6572,32.8042,327.3146,9.8763e-05,1.283e-05,0.0,0 STARLINK-4073,1 52672U 22053S   23008.23524164  .00001283  00000-0  98763-4 0  9995,2 52672  53.2181 305.6572 0003162  32.8042 327.3146 15.08818536 36025,6917.946,95.439,541.998,537.624,0.0
52672.0,STARLINK-4073,PAYLOAD,2023-01-09 03:54:08,15.08845822,0.0002725,53.2168,301.4961,18.9719,341.1374,0.00075286,0.00011716,0.0,0 STARLINK-4073,1 52672U 22053S   23009.16260138  .00011716  00000-0  75286-3 0  9992,2 52672  53.2168 301.4961 0002725  18.9719 341.1374 15.08845822 36166,6917.863,95.437,541.613,537.842,0.0
52672.0,STARLINK-4073,PAYLOAD,2023-01-09 11:51:04,15.08844307,0.000278,53.2178,300.0095,20.0814,340.0287,0.00041539,6.330000000000001e-05,0.0,0 STARLINK-4073,1 52672U 22053S   23009.49380135  .00006330  00000-0  41539-3 0  9998,2 52672  53.2178 300.0095 0002780  20.0814 340.0287 15.08844307 36642,6917.866999999998,95.437,541.655,537.809,0.0
52672.0,STARLINK-4073,PAYLOAD,2023-01-10 11:41:51,15.08838175,0.0002823,53.2169,295.5492,24.7247,335.3880000000001,5.6279e-05,6.07e-06,0.0,0 STARLINK-4073,1 52672U 22053S   23010.48740320  .00000607  00000-0  56279-4 0  9994,2 52672  53.2169 295.5492 0002823  24.7247 335.3880 15.08838175 36361,6917.886,95.438,541.7040000000002,537.798,0.0
52672.0,STARLINK-4073,PAYLOAD,2023-01-11 11:32:38,15.08846609,0.0002865,53.2164,291.0891,28.7961,331.3189,0.0002043,2.965e-05,0.0,0 STARLINK-4073,1 52672U 22053S   23011.48100180  .00002965  00000-0  20430-3 0  9997,2 52672  53.2164 291.0891 0002865  28.7961 331.3189 15.08846609 36946,6917.86,95.437,541.707,537.743,0.0
52672.0,STARLINK-4073,PAYLOAD,2023-01-11 19:29:34,15.08848782,0.0002865,53.2162,289.6017,29.511,330.6044,0.00022736,3.333e-05,0.0,0 STARLINK-4073,1 52672U 22053S   23011.81219992  .00003333  00000-0  22736-3 0  9997,2 52672  53.2162 289.6017 0002865  29.5110 330.6044 15.08848782 36566,6917.854,95.437,541.701,537.737,0.0
